STARLINK-3974           
1 52634U 22052AN  26068.84440947  .00000101  00000+0  24455-4 0  9998
2 52634  53.2157 268.4569 0000966  72.4300 287.6798 15.08839997211013
LEMUR-2-ESPERANZA       
1 63352U 25061B   26068.87489603  .00006090  00000+0  34973-3 0  9993
2 63352  97.5568  45.1407 0016949 244.8770 115.0702 15.12770807 52576
